start=new Date('2022-11-02T00:00:00.000Z').valueOf();
sats=[{"MEAN_MOTION":"15.01299927","RA_OF_ASC_NODE":"65.2284","SITE":"AFWTR","MEAN_ANOMALY":"190.9719","ARG_OF_PERICENTER":"232.5067","PERIAPSIS":"562.332","OBJECT_TYPE":"PAYLOAD","LAUNCH_DATE":"2022-08-12","INCLINATION":"97.6546","CENTER_NAME":"EARTH","PERIOD":"95.917","NORAD_CAT_ID":"53480","FILE":"3640431","APOAPSIS":"563.445","ELEMENT_SET_NO":"999","TIME_SYSTEM":"UTC","CLASSIFICATION_TYPE":"U","EPHEMERIS_TYPE":"0","OBJECT_NAME":"STARLINK-4442","RCS_SIZE":"LARGE","TLE_LINE2":"2 53480  97.6546  65.2284 0000802 232.5067 190.9719 15.01299927  1306","REV_AT_EPOCH":"130","MEAN_ELEMENT_THEORY":"SGP4","REF_FRAME":"TEME","EPOCH":"2022-11-01T22:00:00.999936","SEMIMAJOR_AXIS":"6941.024","GP_ID":"216687702","COUNTRY_CODE":"US","TLE_LINE1":"1 53480U 22099R   22305.91667824 -.00075089  00000-0 -58978-2 0  9997","MEAN_MOTION_DDOT":"0.0000000000000","BSTAR":"-0.00589780000000","OBJECT_ID":"2022-099R","DECAY_DATE":null,"MEAN_MOTION_DOT":"-0.00075089","ECCENTRICITY":"0.00008020"},{"OBJECT_ID":"2022-099S","DECAY_DATE":null,"BSTAR":"-0.00618330000000","MEAN_MOTION_DOT":"-0.00078678","ECCENTRICITY":"0.00012190","MEAN_ELEMENT_THEORY":"SGP4","TLE_LINE2":"2 53481  97.6548  65.2302 0001219 352.4893 100.9966 15.01298166  1301","REV_AT_EPOCH":"130","COUNTRY_CODE":"US","MEAN_MOTION_DDOT":"0.0000000000000","TLE_LINE1":"1 53481U 22099S   22305.91667824 -.00078678  00000-0 -61833-2 0  9999","REF_FRAME":"TEME","EPOCH":"2022-11-01T22:00:00.999936","GP_ID":"216688617","SEMIMAJOR_AXIS":"6941.029","FILE":"3640431","APOAPSIS":"563.740","PERIOD":"95.917","NORAD_CAT_ID":"53481","CENTER_NAME":"EARTH","OBJECT_NAME":"STARLINK-4302","RCS_SIZE":"LARGE","TIME_SYSTEM":"UTC","ELEMENT_SET_NO":"999","CLASSIFICATION_TYPE":"U","EPHEMERIS_TYPE":"0","MEAN_ANOMALY":"100.9966","MEAN_MOTION":"15.01298166","RA_OF_ASC_NODE":"65.2302","SITE":"AFWTR","OBJECT_TYPE":"PAYLOAD","LAUNCH_DATE":"2022-08-12","INCLINATION":"97.6548","ARG_OF_PERICENTER":"352.4893","PERIAPSIS":"562.048"},{"EPOCH":"2022-11-01T22:00:00.999936","REF_FRAME":"TEME","SEMIMAJOR_AXIS":"6940.971","GP_ID":"216688286","COUNTRY_CODE":"US","MEAN_MOTION_DDOT":"0.0000000000000","TLE_LINE1":"1 53482U 22099T   22305.91667824 -.00101666  00000-0 -80132-2 0  9997","REV_AT_EPOCH":"130","TLE_LINE2":"2 53482  97.6543  65.2297 0001391 328.3348 123.8074 15.01316936  1308","MEAN_ELEMENT_THEORY":"SGP4","MEAN_MOTION_DOT":"-0.00101666","ECCENTRICITY":"0.00013910","BSTAR":"-0.00801320000000","OBJECT_ID":"2022-099T","DECAY_DATE":null,"PERIAPSIS":"561.871","ARG_OF_PERICENTER":"328.3348","OBJECT_TYPE":"PAYLOAD","LAUNCH_DATE":"2022-08-12","INCLINATION":"97.6543","RA_OF_ASC_NODE":"65.2297","MEAN_MOTION":"15.01316936","SITE":"AFWTR","MEAN_ANOMALY":"123.8074","TIME_SYSTEM":"UTC","ELEMENT_SET_NO":"999","EPHEMERIS_TYPE":"0","CLASSIFICATION_TYPE":"U","RCS_SIZE":"LARGE","OBJECT_NAME":"STARLINK-4360","CENTER_NAME":"EARTH","PERIOD":"95.916","NORAD_CAT_ID":"53482","FILE":"3640431","APOAPSIS":"563.802"},{"GP_ID":"216688450","SEMIMAJOR_AXIS":"6941.053","REF_FRAME":"TEME","EPOCH":"2022-11-01T22:00:00.999936","MEAN_MOTION_DDOT":"0.0000000000000","TLE_LINE1":"1 53483U 22099U   22305.91667824 -.00056871  00000-0 -44551-2 0  9990","COUNTRY_CODE":"US","TLE_LINE2":"2 53483  97.6581  65.2462 0002280   7.8029 114.3705 15.01290370  1307","REV_AT_EPOCH":"130","MEAN_ELEMENT_THEORY":"SGP4","ECCENTRICITY":"0.00022800","MEAN_MOTION_DOT":"-0.00056871","BSTAR":"-0.00445510000000","DECAY_DATE":null,"OBJECT_ID":"2022-099U","ARG_OF_PERICENTER":"7.8029","PERIAPSIS":"561.336","INCLINATION":"97.6581","LAUNCH_DATE":"2022-08-12","OBJECT_TYPE":"PAYLOAD","SITE":"AFWTR","MEAN_MOTION":"15.01290370","RA_OF_ASC_NODE":"65.2462","MEAN_ANOMALY":"114.3705","CLASSIFICATION_TYPE":"U","EPHEMERIS_TYPE":"0","TIME_SYSTEM":"UTC","ELEMENT_SET_NO":"999","OBJECT_NAME":"STARLINK-4401","RCS_SIZE":"LARGE","PERIOD":"95.917","CENTER_NAME":"EARTH","NORAD_CAT_ID":"53483","APOAPSIS":"564.501","FILE":"3640431"},{"GP_ID":"216688121","SEMIMAJOR_AXIS":"6941.015","EPOCH":"2022-11-01T22:00:00.999936","REF_FRAME":"TEME","TLE_LINE1":"1 53484U 22099V   22305.91667824 -.00074190  00000-0 -58259-2 0  9995","MEAN_MOTION_DDOT":"0.0000000000000","COUNTRY_CODE":"US","REV_AT_EPOCH":"130","TLE_LINE2":"2 53484  97.6566  65.2375 0001205   0.7476 102.7349 15.01302686  1307","MEAN_ELEMENT_THEORY":"SGP4","ECCENTRICITY":"0.00012050","MEAN_MOTION_DOT":"-0.00074190","BSTAR":"-0.00582590000000","DECAY_DATE":null,"OBJECT_ID":"2022-099V","PERIAPSIS":"562.044","ARG_OF_PERICENTER":"0.7476","INCLINATION":"97.6566","LAUNCH_DATE":"2022-08-12","OBJECT_TYPE":"PAYLOAD","SITE":"AFWTR","RA_OF_ASC_NODE":"65.2375","MEAN_MOTION":"15.01302686","MEAN_ANOMALY":"102.7349","EPHEMERIS_TYPE":"0","CLASSIFICATION_TYPE":"U","TIME_SYSTEM":"UTC","ELEMENT_SET_NO":"999","RCS_SIZE":"LARGE","OBJECT_NAME":"STARLINK-4426","CENTER_NAME":"EARTH","PERIOD":"95.917","NORAD_CAT_ID":"53484","APOAPSIS":"563.717","FILE":"3640431"},{"BSTAR":"-0.00578420000000","OBJECT_ID":"2022-099W","DECAY_DATE":null,"MEAN_MOTION_DOT":"-0.00073668","ECCENTRICITY":"0.00023790","TLE_LINE2":"2 53485  97.6572  65.2479 0002379  14.6977 118.7784 15.01301663  1307","REV_AT_EPOCH":"130","MEAN_ELEMENT_THEORY":"SGP4","REF_FRAME":"TEME","EPOCH":"2022-11-01T22:00:00.999936","GP_ID":"216688870","SEMIMAJOR_AXIS":"6941.018","COUNTRY_CODE":"US","MEAN_MOTION_DDOT":"0.0000000000000","TLE_LINE1":"1 53485U 22099W   22305.91667824 -.00073668  00000-0 -57842-2 0  9992","PERIOD":"95.917","CENTER_NAME":"EARTH","NORAD_CAT_ID":"53485","FILE":"3640431","APOAPSIS":"564.535","ELEMENT_SET_NO":"999","TIME_SYSTEM":"UTC","CLASSIFICATION_TYPE":"U","EPHEMERIS_TYPE":"0","OBJECT_NAME":"STARLINK-4430","RCS_SIZE":"LARGE","MEAN_MOTION":"15.01301663","RA_OF_ASC_NODE":"65.2479","SITE":"AFWTR","MEAN_ANOMALY":"118.7784","ARG_OF_PERICENTER":"14.6977","PERIAPSIS":"561.232","OBJECT_TYPE":"PAYLOAD","INCLINATION":"97.6572","LAUNCH_DATE":"2022-08-12"},{"MEAN_MOTION_DOT":"-0.00088348","ECCENTRICITY":"0.00021530","OBJECT_ID":"2022-099X","DECAY_DATE":null,"BSTAR":"-0.00694900000000","COUNTRY_CODE":"US","TLE_LINE1":"1 53486U 22099X   22305.91667824 -.00088348  00000-0 -69490-2 0  9996","MEAN_MOTION_DDOT":"0.0000000000000","REF_FRAME":"TEME","EPOCH":"2022-11-01T22:00:00.999936","SEMIMAJOR_AXIS":"6940.963","GP_ID":"216687868","MEAN_ELEMENT_THEORY":"SGP4","TLE_LINE2":"2 53486  97.6585  65.2382 0002153  13.8373  99.6535 15.01319674  1308","REV_AT_EPOCH":"130","OBJECT_NAME":"STARLINK-4431","RCS_SIZE":"LARGE","ELEMENT_SET_NO":"999","TIME_SYSTEM":"UTC","CLASSIFICATION_TYPE":"U","EPHEMERIS_TYPE":"0","FILE":"3640431","APOAPSIS":"564.322","PERIOD":"95.916","CENTER_NAME":"EARTH","NORAD_CAT_ID":"53486","OBJECT_TYPE":"PAYLOAD","INCLINATION":"97.6585","LAUNCH_DATE":"2022-08-12","ARG_OF_PERICENTER":"13.8373","PERIAPSIS":"561.334","MEAN_ANOMALY":"99.6535","MEAN_MOTION":"15.01319674","RA_OF_ASC_NODE":"65.2382","SITE":"AFWTR"},{"ECCENTRICITY":"0.00027420","MEAN_MOTION_DOT":"-0.00079343","BSTAR":"-0.00623310000000","DECAY_DATE":null,"OBJECT_ID":"2022-099Y","SEMIMAJOR_AXIS":"6940.982","GP_ID":"216688703","REF_FRAME":"TEME","EPOCH":"2022-11-01T22:00:00.999936","TLE_LINE1":"1 53487U 22099Y   22305.91667824 -.00079343  00000-0 -62331-2 0  9999","MEAN_MOTION_DDOT":"0.0000000000000","COUNTRY_CODE":"US","TLE_LINE2":"2 53487  97.6567  65.2511 0002742  21.8258 131.6119 15.01313527  1304","REV_AT_EPOCH":"130","MEAN_ELEMENT_THEORY":"SGP4","CLASSIFICATION_TYPE":"U","EPHEMERIS_TYPE":"0","ELEMENT_SET_NO":"999","TIME_SYSTEM":"UTC","OBJECT_NAME":"STARLINK-4432","RCS_SIZE":"LARGE","NORAD_CAT_ID":"53487","PERIOD":"95.916","CENTER_NAME":"EARTH","APOAPSIS":"564.750","FILE":"3640431","ARG_OF_PERICENTER":"21.8258","PERIAPSIS":"560.944","INCLINATION":"97.6567","LAUNCH_DATE":"2022-08-12","OBJECT_TYPE":"PAYLOAD","SITE":"AFWTR","MEAN_MOTION":"15.01313527","RA_OF_ASC_NODE":"65.2511","MEAN_ANOMALY":"131.6119"},{"FILE":"3640431","APOAPSIS":"564.435","CENTER_NAME":"EARTH","PERIOD":"95.917","NORAD_CAT_ID":"53488","OBJECT_NAME":"STARLINK-4421","RCS_SIZE":"LARGE","ELEMENT_SET_NO":"999","TIME_SYSTEM":"UTC","CLASSIFICATION_TYPE":"U","EPHEMERIS_TYPE":"0","MEAN_ANOMALY":"118.3097","MEAN_MOTION":"15.01290243","RA_OF_ASC_NODE":"65.2442","SITE":"AFWTR","OBJECT_TYPE":"PAYLOAD","INCLINATION":"97.6581","LAUNCH_DATE":"2022-08-12","ARG_OF_PERICENTER":"5.1182","PERIAPSIS":"561.402","OBJECT_ID":"2022-099Z","DECAY_DATE":null,"BSTAR":"-0.00281150000000","MEAN_MOTION_DOT":"-0.00036017","ECCENTRICITY":"0.00021850","MEAN_ELEMENT_THEORY":"SGP4","TLE_LINE2":"2 53488  97.6581  65.2442 0002185   5.1182 118.3097 15.01290243  1302","REV_AT_EPOCH":"130","COUNTRY_CODE":"US","TLE_LINE1":"1 53488U 22099Z   22305.91667824 -.00036017  00000-0 -28115-2 0  9993","MEAN_MOTION_DDOT":"0.0000000000000","REF_FRAME":"TEME","EPOCH":"2022-11-01T22:00:00.999936","GP_ID":"216687703","SEMIMAJOR_AXIS":"6941.054"},{"FILE":"3640431","APOAPSIS":"564.906","CENTER_NAME":"EARTH","PERIOD":"95.916","NORAD_CAT_ID":"53489","OBJECT_NAME":"STARLINK-4392","RCS_SIZE":"LARGE","ELEMENT_SET_NO":"999","TIME_SYSTEM":"UTC","CLASSIFICATION_TYPE":"U","EPHEMERIS_TYPE":"0","MEAN_ANOMALY":"145.3008","MEAN_MOTION":"15.01309905","RA_OF_ASC_NODE":"65.2546","SITE":"AFWTR","OBJECT_TYPE":"PAYLOAD","LAUNCH_DATE":"2022-08-12","INCLINATION":"97.6568","ARG_OF_PERICENTER":"18.1623","PERIAPSIS":"560.810","OBJECT_ID":"2022-099AA","DECAY_DATE":null,"BSTAR":"-0.00611240000000","MEAN_MOTION_DOT":"-0.00077819","ECCENTRICITY":"0.00029510","MEAN_ELEMENT_THEORY":"SGP4","TLE_LINE2":"2 53489  97.6568  65.2546 0002951  18.1623 145.3008 15.01309905  1306","REV_AT_EPOCH":"130","COUNTRY_CODE":"US","TLE_LINE1":"1 53489U 22099AA  22305.91667824 -.00077819  00000-0 -61124-2 0  9996","MEAN_MOTION_DDOT":"0.0000000000000","REF_FRAME":"TEME","EPOCH":"2022-11-01T22:00:00.999936","GP_ID":"216688618","SEMIMAJOR_AXIS":"6940.993"}];
